[{"OBJECT_NAME":"STARLINK-3975","OBJECT_ID":"2022-052Y","EPOCH":"2026-02-14T05:21:01.090656","MEAN_MOTION":15.08835284,"ECCENTRICITY":0.00017523,"INCLINATION":53.2199,"RA_OF_ASC_NODE":29.4725,"ARG_OF_PERICENTER":70.1145,"MEAN_ANOMALY":290.0036,"EPHEMERIS_TYPE":0,"CLASSIFICATION_TYPE":"U","NORAD_CAT_ID":52620,"ELEMENT_SET_NO":999,"REV_AT_EPOCH":20723,"BSTAR":4.8115177e-5,"MEAN_MOTION_DOT":4.78e-6,"MEAN_MOTION_DDOT":0},{"OBJECT_NAME":"STARLINK-3984","OBJECT_ID":"2022-052Z","EPOCH":"2026-02-14T06:50:26.687904","MEAN_MOTION":15.08828789,"ECCENTRICITY":0.00017012,"INCLINATION":53.2197,"RA_OF_ASC_NODE":14.1875,"ARG_OF_PERICENTER":102.913,"MEAN_ANOMALY":257.2052,"EPHEMERIS_TYPE":0,"CLASSIFICATION_TYPE":"U","NORAD_CAT_ID":52621,"ELEMENT_SET_NO":999,"REV_AT_EPOCH":20745,"BSTAR":0.00022829521,"MEAN_MOTION_DOT":3.346e-5,"MEAN_MOTION_DDOT":0},{"OBJECT_NAME":"STARLINK-4008","OBJECT_ID":"2022-052AA","EPOCH":"2026-02-14T06:03:24.151968","MEAN_MOTION":15.08836529,"ECCENTRICITY":0.00014805,"INCLINATION":53.2187,"RA_OF_ASC_NODE":29.3317,"ARG_OF_PERICENTER":100.4946,"MEAN_ANOMALY":259.6213,"EPHEMERIS_TYPE":0,"CLASSIFICATION_TYPE":"U","NORAD_CAT_ID":52622,"ELEMENT_SET_NO":999,"REV_AT_EPOCH":20724,"BSTAR":5.506432e-6,"MEAN_MOTION_DOT":-2.0e-6,"MEAN_MOTION_DDOT":0},{"OBJECT_NAME":"STARLINK-3986","OBJECT_ID":"2022-052AB","EPOCH":"2026-02-14T03:34:21.762336","MEAN_MOTION":15.08841977,"ECCENTRICITY":0.00013687,"INCLINATION":53.2191,"RA_OF_ASC_NODE":14.7996,"ARG_OF_PERICENTER":102.8717,"MEAN_ANOMALY":257.2428,"EPHEMERIS_TYPE":0,"CLASSIFICATION_TYPE":"U","NORAD_CAT_ID":52623,"ELEMENT_SET_NO":999,"REV_AT_EPOCH":20743,"BSTAR":6.5152584e-5,"MEAN_MOTION_DOT":7.49e-6,"MEAN_MOTION_DDOT":0},{"OBJECT_NAME":"STARLINK-3988","OBJECT_ID":"2022-052AD","EPOCH":"2026-02-14T03:29:03.994368","MEAN_MOTION":15.08835307,"ECCENTRICITY":0.00020401,"INCLINATION":53.2195,"RA_OF_ASC_NODE":14.8154,"ARG_OF_PERICENTER":103.3006,"MEAN_ANOMALY":256.8214,"EPHEMERIS_TYPE":0,"CLASSIFICATION_TYPE":"U","NORAD_CAT_ID":52625,"ELEMENT_SET_NO":999,"REV_AT_EPOCH":20743,"BSTAR":-5.133645e-6,"MEAN_MOTION_DOT":-3.7e-6,"MEAN_MOTION_DDOT":0},{"OBJECT_NAME":"STARLINK-3990","OBJECT_ID":"2022-052AE","EPOCH":"2026-02-14T06:55:43.703328","MEAN_MOTION":15.08835418,"ECCENTRICITY":0.0001272,"INCLINATION":53.2192,"RA_OF_ASC_NODE":14.1703,"ARG_OF_PERICENTER":97.7757,"MEAN_ANOMALY":262.338,"EPHEMERIS_TYPE":0,"CLASSIFICATION_TYPE":"U","NORAD_CAT_ID":52626,"ELEMENT_SET_NO":999,"REV_AT_EPOCH":20745,"BSTAR":0.00022023496,"MEAN_MOTION_DOT":3.218e-5,"MEAN_MOTION_DDOT":0},{"OBJECT_NAME":"STARLINK-3992","OBJECT_ID":"2022-052AF","EPOCH":"2026-02-14T03:13:09.760800","MEAN_MOTION":15.0883161,"ECCENTRICITY":0.00014442,"INCLINATION":53.2181,"RA_OF_ASC_NODE":14.8686,"ARG_OF_PERICENTER":97.1976,"MEAN_ANOMALY":262.9181,"EPHEMERIS_TYPE":0,"CLASSIFICATION_TYPE":"U","NORAD_CAT_ID":52627,"ELEMENT_SET_NO":999,"REV_AT_EPOCH":20744,"BSTAR":0.00017026642,"MEAN_MOTION_DOT":2.422e-5,"MEAN_MOTION_DDOT":0},{"OBJECT_NAME":"STARLINK-4001","OBJECT_ID":"2022-052AG","EPOCH":"2026-02-14T04:22:43.476096","MEAN_MOTION":15.08835515,"ECCENTRICITY":0.00014429,"INCLINATION":53.2182,"RA_OF_ASC_NODE":29.6469,"ARG_OF_PERICENTER":92.2371,"MEAN_ANOMALY":267.8787,"EPHEMERIS_TYPE":0,"CLASSIFICATION_TYPE":"U","NORAD_CAT_ID":52628,"ELEMENT_SET_NO":999,"REV_AT_EPOCH":20723,"BSTAR":0.00011900937,"MEAN_MOTION_DOT":1.606e-5,"MEAN_MOTION_DDOT":0},{"OBJECT_NAME":"STARLINK-4022","OBJECT_ID":"2022-052AH","EPOCH":"2026-02-14T04:37:56.963424","MEAN_MOTION":15.08849645,"ECCENTRICITY":0.00014912,"INCLINATION":53.218,"RA_OF_ASC_NODE":14.5644,"ARG_OF_PERICENTER":75.0239,"MEAN_ANOMALY":285.0919,"EPHEMERIS_TYPE":0,"CLASSIFICATION_TYPE":"U","NORAD_CAT_ID":52629,"ELEMENT_SET_NO":999,"REV_AT_EPOCH":20744,"BSTAR":0.00012412079,"MEAN_MOTION_DOT":1.688e-5,"MEAN_MOTION_DDOT":0},{"OBJECT_NAME":"STARLINK-3989","OBJECT_ID":"2022-052AJ","EPOCH":"2026-02-14T03:23:45.437568","MEAN_MOTION":15.08838923,"ECCENTRICITY":0.00012465,"INCLINATION":53.2188,"RA_OF_ASC_NODE":14.8329,"ARG_OF_PERICENTER":99.7943,"MEAN_ANOMALY":260.319,"EPHEMERIS_TYPE":0,"CLASSIFICATION_TYPE":"U","NORAD_CAT_ID":52630,"ELEMENT_SET_NO":999,"REV_AT_EPOCH":20743,"BSTAR":-8.9947938e-5,"MEAN_MOTION_DOT":-1.719e-5,"MEAN_MOTION_DDOT":0},{"OBJECT_NAME":"STARLINK-3794","OBJECT_ID":"2022-052AK","EPOCH":"2026-02-14T04:39:19.766592","MEAN_MOTION":15.08838895,"ECCENTRICITY":0.00013366,"INCLINATION":53.2182,"RA_OF_ASC_NODE":14.6117,"ARG_OF_PERICENTER":82.3351,"MEAN_ANOMALY":277.7793,"EPHEMERIS_TYPE":0,"CLASSIFICATION_TYPE":"U","NORAD_CAT_ID":52631,"ELEMENT_SET_NO":999,"REV_AT_EPOCH":20745,"BSTAR":3.69227e-5,"MEAN_MOTION_DOT":3.0e-6,"MEAN_MOTION_DDOT":0},{"OBJECT_NAME":"STARLINK-3995","OBJECT_ID":"2022-052AL","EPOCH":"2026-02-14T03:18:27.864864","MEAN_MOTION":15.08837453,"ECCENTRICITY":0.00012266,"INCLINATION":53.2182,"RA_OF_ASC_NODE":14.8488,"ARG_OF_PERICENTER":105.579,"MEAN_ANOMALY":254.5338,"EPHEMERIS_TYPE":0,"CLASSIFICATION_TYPE":"U","NORAD_CAT_ID":52632,"ELEMENT_SET_NO":999,"REV_AT_EPOCH":20744,"BSTAR":0.00019097707,"MEAN_MOTION_DOT":2.753e-5,"MEAN_MOTION_DDOT":0},{"OBJECT_NAME":"STARLINK-3994","OBJECT_ID":"2022-052AM","EPOCH":"2026-02-14T04:22:03.472896","MEAN_MOTION":15.08840382,"ECCENTRICITY":0.00015226,"INCLINATION":53.2187,"RA_OF_ASC_NODE":14.6535,"ARG_OF_PERICENTER":103.911,"MEAN_ANOMALY":256.2052,"EPHEMERIS_TYPE":0,"CLASSIFICATION_TYPE":"U","NORAD_CAT_ID":52633,"ELEMENT_SET_NO":999,"REV_AT_EPOCH":20745,"BSTAR":-1.273219e-5,"MEAN_MOTION_DOT":-4.91e-6,"MEAN_MOTION_DDOT":0},{"OBJECT_NAME":"STARLINK-3974","OBJECT_ID":"2022-052AN","EPOCH":"2026-02-14T03:07:52.353120","MEAN_MOTION":15.08841331,"ECCENTRICITY":0.00015042,"INCLINATION":53.2196,"RA_OF_ASC_NODE":14.9134,"ARG_OF_PERICENTER":89.4749,"MEAN_ANOMALY":270.6416,"EPHEMERIS_TYPE":0,"CLASSIFICATION_TYPE":"U","NORAD_CAT_ID":52634,"ELEMENT_SET_NO":999,"REV_AT_EPOCH":20743,"BSTAR":-6.0781331e-5,"MEAN_MOTION_DOT":-1.255e-5,"MEAN_MOTION_DDOT":0},{"OBJECT_NAME":"STARLINK-3978","OBJECT_ID":"2022-052AP","EPOCH":"2026-02-14T02:21:30.642912","MEAN_MOTION":15.08834532,"ECCENTRICITY":0.00010804,"INCLINATION":53.2188,"RA_OF_ASC_NODE":5.0336,"ARG_OF_PERICENTER":83.9865,"MEAN_ANOMALY":276.1251,"EPHEMERIS_TYPE":0,"CLASSIFICATION_TYPE":"U","NORAD_CAT_ID":52635,"ELEMENT_SET_NO":999,"REV_AT_EPOCH":20757,"BSTAR":-0.00014711163,"MEAN_MOTION_DOT":-2.628e-5,"MEAN_MOTION_DDOT":0},{"OBJECT_NAME":"STARLINK-3967","OBJECT_ID":"2022-052AQ","EPOCH":"2026-02-14T04:32:39.120288","MEAN_MOTION":15.08838676,"ECCENTRICITY":0.00015779,"INCLINATION":53.2191,"RA_OF_ASC_NODE":14.6222,"ARG_OF_PERICENTER":87.1517,"MEAN_ANOMALY":272.9656,"EPHEMERIS_TYPE":0,"CLASSIFICATION_TYPE":"U","NORAD_CAT_ID":52636,"ELEMENT_SET_NO":999,"REV_AT_EPOCH":20744,"BSTAR":7.821504e-6,"MEAN_MOTION_DOT":-1.64e-6,"MEAN_MOTION_DDOT":0}]
