STARLINK-3975           
1 52620U 22052Y   26045.22292929  .00000478  00000+0  48115-4 0  9991
2 52620  53.2199  29.4725 0001752  70.1145 290.0036 15.08835284207236
STARLINK-3984           
1 52621U 22052Z   26045.28503111  .00003346  00000+0  22830-3 0  9998
2 52621  53.2197  14.1875 0001701 102.9130 257.2052 15.08828789207453
STARLINK-4008           
1 52622U 22052AA  26045.25236287 -.00000200  00000+0  55064-5 0  9997
2 52622  53.2187  29.3317 0001480 100.4946 259.6213 15.08836529207247
STARLINK-3986           
1 52623U 22052AB  26045.14886299  .00000749  00000+0  65153-4 0  9996
2 52623  53.2191  14.7996 0001368 102.8717 257.2428 15.08841977207437
STARLINK-3988           
1 52625U 22052AD  26045.14518512 -.00000370  00000+0 -51336-5 0  9999
2 52625  53.2195  14.8154 0002040 103.3006 256.8214 15.08835307207433
STARLINK-3990           
1 52626U 22052AE  26045.28870027  .00003218  00000+0  22023-3 0  9998
2 52626  53.2192  14.1703 0001272  97.7757 262.3380 15.08835418207450
STARLINK-3992           
1 52627U 22052AF  26045.13414075  .00002422  00000+0  17027-3 0  9994
2 52627  53.2181  14.8686 0001444  97.1976 262.9181 15.08831610207448
STARLINK-4001           
1 52628U 22052AG  26045.18244764  .00001606  00000+0  11901-3 0  9994
2 52628  53.2182  29.6469 0001442  92.2371 267.8787 15.08835515207237
STARLINK-4022           
1 52629U 22052AH  26045.19302041  .00001688  00000+0  12412-3 0  9997
2 52629  53.2180  14.5644 0001491  75.0239 285.0919 15.08849645207441
STARLINK-3989           
1 52630U 22052AJ  26045.14149812 -.00001719  00000+0 -89948-4 0  9995
2 52630  53.2188  14.8329 0001246  99.7943 260.3190 15.08838923207430
STARLINK-3794           
1 52631U 22052AK  26045.19397878  .00000300  00000+0  36923-4 0  9996
2 52631  53.2182  14.6117 0001336  82.3351 277.7793 15.08838895207450
STARLINK-3995           
1 52632U 22052AL  26045.13782251  .00002753  00000+0  19098-3 0  9991
2 52632  53.2182  14.8488 0001226 105.5790 254.5338 15.08837453207443
STARLINK-3994           
1 52633U 22052AM  26045.18198464 -.00000491  00000+0 -12732-4 0  9992
2 52633  53.2187  14.6535 0001522 103.9110 256.2052 15.08840382207455
STARLINK-3974           
1 52634U 22052AN  26045.13046705 -.00001255  00000+0 -60781-4 0  9994
2 52634  53.2196  14.9134 0001504  89.4749 270.6416 15.08841331207437
STARLINK-3978           
1 52635U 22052AP  26045.09827133 -.00002628  00000+0 -14711-3 0  9998
2 52635  53.2188   5.0336 0001080  83.9865 276.1251 15.08834532207579
STARLINK-3967           
1 52636U 22052AQ  26045.18934167 -.00000164  00000+0  78215-5 0  9998
2 52636  53.2191  14.6222 0001577  87.1517 272.9656 15.08838676207447
